YAMAL 401               
1 40345U 14082A   26191.29903829 -.00000217  00000+0  00000+0 0  9991
2 40345   0.0050 212.4959 0000504 203.8081  69.5177  1.00269399 42152
ASTRA 2G                
1 40364U 14089A   26191.31503042  .00000160  00000+0  00000+0 0  9991
2 40364   0.0466  13.1171 0004302  64.5695 352.1672  1.00272915 42204
FENGYUN 2G              
1 40367U 14090A   26190.80719515 -.00000292  00000+0  00000+0 0  9990
2 40367   5.6923  72.5471 0004059 150.8370  94.3226  1.00262790 42228
MUOS-3                  
1 40374U 15002A   26191.27875819 -.00000123  00000+0  00000+0 0  9997
2 40374   4.5642  43.6133 0053191 177.4183 151.9992  1.00270029 41812
INMARSAT 5-F2           
1 40384U 15005A   26191.05696911 -.00000274  00000+0  00000+0 0  9998
2 40384   0.0185  28.1463 0000421  83.0507 142.2922  1.00271056 41222
ABS-3A                  
1 40424U 15010A   26191.20983684  .00000000  00000+0  00000+0 0  9998
2 40424   0.0443  70.5448 0001741 358.7553 291.3938  1.00275719 41602
EUTELSAT 115 WEST B     
1 40425U 15010B   26191.34273851 -.00000015  00000+0  00000+0 0  9999
2 40425   0.0072 160.3018 0000211 280.3567 216.0941  1.00272893 41617
EXPRESS-AM7             
1 40505U 15012A   26191.28967824  .00000162  00000+0  00000+0 0  9995
2 40505   0.0163 350.4311 0002715 125.3357 316.7489  1.00267861 41233
BEIDOU-3S IGSO-1S       
1 40549U 15019A   26183.80025122 -.00000190  00000+0  00000+0 0  9997
2 40549  49.1798 295.2769 0076860 219.1125 144.2493  1.00680073 41232
THOR 7                  
1 40613U 15022A   26191.31503042  .00000000  00000+0  00000+0 0  9999
2 40613   0.0200  62.6725 0002266  52.2455 286.0721  1.00270516 41042
TURKMENALEM52E/MONACOSAT
1 40617U 15023A   26191.14946093  .00000115  00000+0  00000+0 0  9999
2 40617   0.0170  75.5299 0002618  41.6614 276.7128  1.00269256 41070
DIRECTV 15              
1 40663U 15026A   26191.31079771 -.00000092  00000+0  00000+0 0  9997
2 40663   0.0196  72.6714 0000125 162.6704  61.9069  1.00272568 40699
SKY MEXICO-1            
1 40664U 15026B   26191.30808817 -.00000224  00000+0  00000+0 0  9995
2 40664   0.0178 353.0003 0002319 137.9443 189.4027  1.00271575 40685
METEOSAT-11 (MSG-4)     
1 40732U 15034A   26191.28361155  .00000069  00000+0  00000+0 0  9992
2 40732   3.2576  70.9662 0002249 352.1949 336.4015  1.00270327  7440
STAR ONE C4             
1 40733U 15034B   26191.31383670 -.00000254  00000+0  00000+0 0  9990
2 40733   0.0277 332.1282 0001400 114.4009 244.6979  1.00270890 40248
WGS F7 (USA 263)        
1 40746U 15036A   26191.10256613  .00000000  00000+0  00000+0 0  9997
2 40746   0.0454  68.5326 0000750 141.9874 289.4198  1.00271632 40100
INTELSAT 34 (IS-34)     
1 40874U 15039A   26191.05688244 -.00000274  00000+0  00000+0 0  9999
2 40874   0.0101  16.1720 0000122 324.1781 272.6171  1.00270657 39865
EUTELSAT 8 WEST B       
1 40875U 15039B   26191.33308481 -.00000055  00000+0  00000+0 0  9990
2 40875   0.0623   3.5002 0003812  99.8644 296.7985  1.00271698 39889
GSAT-6                  
1 40880U 15041A   26191.15552763 -.00000150  00000+0  00000+0 0  9999
2 40880   1.9770  82.3100 0003069  21.1814 323.0373  1.00272134 39828
INMARSAT 5-F3           
1 40882U 15042A   26191.17468104  .00000061  00000+0  00000+0 0  9999
2 40882   0.0184  37.9216 0000416 144.6018 348.0481  1.00270756 39806
MUOS-4                  
1 40887U 15044A   26191.19608356 -.00000085  00000+0  00000+0 0  9990
2 40887   4.3710  42.3588 0056651   3.3485  27.9931  1.00271240 39796
TJS-1                   
1 40892U 15046A   26191.24112366 -.00000145  00000+0  00000+0 0  9992
2 40892   0.3798  84.7825 0005009  16.3440  68.8526  1.00273342 39805
EXPRESS-AM8             
1 40895U 15048A   26191.27893153 -.00000101  00000+0  00000+0 0  9992
2 40895   0.0152 309.2775 0000164  48.8116  16.5275  1.00270882 39576
BEIDOU-3S IGSO-2S       
1 40938U 15053A   26190.65869216 -.00000103  00000+0  00000+0 0  9992
2 40938  49.1869 258.5151 0066136 192.8518 167.1461  1.00254643 39582
SKY MUSTER 1 (NBN1A)    
1 40940U 15054A   26191.16696767  .00000000  00000+0  00000+0 0  9997
2 40940   0.0185  10.4231 0001543  99.4198  18.6038  1.00270506 39499
ARSAT 2                 
1 40941U 15054B   26191.26567146 -.00000214  00000+0  00000+0 0  9995
2 40941   0.0462 281.1665 0001896 180.9615 200.7084  1.00271595 39536
MORELOS 3               
1 40946U 15056A   26191.34427346 -.00000035  00000+0  00000+0 0  9999
2 40946   3.2059  15.6659 0000285 104.9426 178.4959  1.00272196 39516
APSTAR-9                
1 40982U 15059A   26190.49196744 -.00000253  00000+0  00000+0 0  9994
2 40982   0.0149  16.9337 0003266 169.7240  59.8635  1.00268630 39345
TURKSAT 4B              
1 40984U 15060A   26191.22032356  .00000000  00000+0  00000+0 0  9997
2 40984   0.0278  37.9099 0002326  82.1491 297.3663  1.00270695 39322
ZHONGXING-2C            
1 41021U 15063A   26190.73196675 -.00000311  00000+0  00000+0 0  9999
2 41021   0.3282  88.9305 0008353  98.4269 107.2202  1.00267565 39205
GSAT-15                 
1 41028U 15065A   26191.30016497 -.00000247  00000+0  00000+0 0  9993
2 41028   0.0133 334.0803 0003670 116.2719  39.4391  1.00271341 39031
BADR-7 (ARABSAT-6B)     
1 41029U 15065B   26191.28690490  .00000156  00000+0  00000+0 0  9990
2 41029   0.0396 208.1247 0004724 355.2322 214.1167  1.00271714 38993
