OBJECT_NAME,OBJECT_ID,EPOCH,MEAN_MOTION,ECCENTRICITY,INCLINATION,RA_OF_ASC_NODE,ARG_OF_PERICENTER,MEAN_ANOMALY,EPHEMERIS_TYPE,CLASSIFICATION_TYPE,NORAD_CAT_ID,ELEMENT_SET_NO,REV_AT_EPOCH,BSTAR,MEAN_MOTION_DOT,MEAN_MOTION_DDOT
YAMAL 401,2014-082A,2026-07-10T07:10:36.908256,1.00269399,.00005049,0.0050,212.4959,203.8081,69.5177,0,U,40345,999,4215,0,-.217E-5,0
ASTRA 2G,2014-089A,2026-07-10T07:33:38.628288,1.00272915,.00043026,0.0466,13.1171,64.5695,352.1672,0,U,40364,999,4220,0,.16E-5,0
FENGYUN 2G,2014-090A,2026-07-09T19:22:21.660960,1.00262790,.00040599,5.6923,72.5471,150.8370,94.3226,0,U,40367,999,4222,0,-.292E-5,0
MUOS-3,2015-002A,2026-07-10T06:41:24.707616,1.00270029,.00531917,4.5642,43.6133,177.4183,151.9992,0,U,40374,999,4181,0,-.123E-5,0
INMARSAT 5-F2,2015-005A,2026-07-10T01:22:02.131104,1.00271056,.00004218,0.0185,28.1463,83.0507,142.2922,0,U,40384,999,4122,0,-.274E-5,0
ABS-3A,2015-010A,2026-07-10T05:02:09.902976,1.00275719,.0001741,0.0443,70.5448,358.7553,291.3938,0,U,40424,999,4160,0,0,0
EUTELSAT 115 WEST B,2015-010B,2026-07-10T08:13:32.607264,1.00272893,.00002118,0.0072,160.3018,280.3567,216.0941,0,U,40425,999,4161,0,-.15E-6,0
EXPRESS-AM7,2015-012A,2026-07-10T06:57:08.199936,1.00267861,.0002715,0.0163,350.4311,125.3357,316.7489,0,U,40505,999,4123,0,.162E-5,0
BEIDOU-3S IGSO-1S,2015-019A,2026-07-02T19:12:21.705408,1.00680073,.00768606,49.1798,295.2769,219.1125,144.2493,0,U,40549,999,4123,0,-.19E-5,0
THOR 7,2015-022A,2026-07-10T07:33:38.628288,1.00270516,.00022664,0.0200,62.6725,52.2455,286.0721,0,U,40613,999,4104,0,0,0
TURKMENALEM52E/MONACOSAT,2015-023A,2026-07-10T03:35:13.424352,1.00269256,.00026183,0.0170,75.5299,41.6614,276.7128,0,U,40617,999,4107,0,.115E-5,0
DIRECTV 15,2015-026A,2026-07-10T07:27:32.922144,1.00272568,.00001253,0.0196,72.6714,162.6704,61.9069,0,U,40663,999,4069,0,-.92E-6,0
SKY MEXICO-1,2015-026B,2026-07-10T07:23:38.817888,1.00271575,.00023197,0.0178,353.0003,137.9443,189.4027,0,U,40664,999,4068,0,-.224E-5,0
METEOSAT-11 (MSG-4),2015-034A,2026-07-10T06:48:24.037920,1.00270327,.0002249,3.2576,70.9662,352.1949,336.4015,0,U,40732,999,744,0,.69E-6,0
STAR ONE C4,2015-034B,2026-07-10T07:31:55.490880,1.00270890,.00014009,0.0277,332.1282,114.4009,244.6979,0,U,40733,999,4024,0,-.254E-5,0
WGS F7 (USA 263),2015-036A,2026-07-10T02:27:41.713632,1.00271632,.00007502,0.0454,68.5326,141.9874,289.4198,0,U,40746,999,4010,0,0,0
INTELSAT 34 (IS-34),2015-039A,2026-07-10T01:21:54.642816,1.00270657,.00001224,0.0101,16.1720,324.1781,272.6171,0,U,40874,999,3986,0,-.274E-5,0
EUTELSAT 8 WEST B,2015-039B,2026-07-10T07:59:38.527584,1.00271698,.00038126,0.0623,3.5002,99.8644,296.7985,0,U,40875,999,3988,0,-.55E-6,0
GSAT-6,2015-041A,2026-07-10T03:43:57.587232,1.00272134,.00030699,1.9770,82.3100,21.1814,323.0373,0,U,40880,999,3982,0,-.15E-5,0
INMARSAT 5-F3,2015-042A,2026-07-10T04:11:32.441856,1.00270756,.00004168,0.0184,37.9216,144.6018,348.0481,0,U,40882,999,3980,0,.61E-6,0
MUOS-4,2015-044A,2026-07-10T04:42:21.619584,1.00271240,.0056651,4.3710,42.3588,3.3485,27.9931,0,U,40887,999,3979,0,-.85E-6,0
TJS-1,2015-046A,2026-07-10T05:47:13.084224,1.00273342,.00050093,0.3798,84.7825,16.3440,68.8526,0,U,40892,999,3980,0,-.145E-5,0
EXPRESS-AM8,2015-048A,2026-07-10T06:41:39.684192,1.00270882,.00001642,0.0152,309.2775,48.8116,16.5275,0,U,40895,999,3957,0,-.101E-5,0
BEIDOU-3S IGSO-2S,2015-053A,2026-07-09T15:48:31.002624,1.00254643,.00661364,49.1869,258.5151,192.8518,167.1461,0,U,40938,999,3958,0,-.103E-5,0
SKY MUSTER 1 (NBN1A),2015-054A,2026-07-10T04:00:26.006688,1.00270506,.0001543,0.0185,10.4231,99.4198,18.6038,0,U,40940,999,3949,0,0,0
ARSAT 2,2015-054B,2026-07-10T06:22:34.014144,1.00271595,.00018966,0.0462,281.1665,180.9615,200.7084,0,U,40941,999,3953,0,-.214E-5,0
MORELOS 3,2015-056A,2026-07-10T08:15:45.226944,1.00272196,.0000285,3.2059,15.6659,104.9426,178.4959,0,U,40946,999,3951,0,-.35E-6,0
APSTAR-9,2015-059A,2026-07-09T11:48:25.986816,1.00268630,.00032666,0.0149,16.9337,169.7240,59.8635,0,U,40982,999,3934,0,-.253E-5,0
TURKSAT 4B,2015-060A,2026-07-10T05:17:15.955584,1.00270695,.00023267,0.0278,37.9099,82.1491,297.3663,0,U,40984,999,3932,0,0,0
ZHONGXING-2C,2015-063A,2026-07-09T17:34:01.927200,1.00267565,.00083535,0.3282,88.9305,98.4269,107.2202,0,U,41021,999,3920,0,-.311E-5,0
GSAT-15,2015-065A,2026-07-10T07:12:14.253408,1.00271341,.00036703,0.0133,334.0803,116.2719,39.4391,0,U,41028,999,3903,0,-.247E-5,0
BADR-7 (ARABSAT-6B),2015-065B,2026-07-10T06:53:08.583360,1.00271714,.00047247,0.0396,208.1247,355.2322,214.1167,0,U,41029,999,3899,0,.156E-5,0
